OBJECT_NAME,OBJECT_ID,EPOCH,MEAN_MOTION,ECCENTRICITY,INCLINATION,RA_OF_ASC_NODE,ARG_OF_PERICENTER,MEAN_ANOMALY,EPHEMERIS_TYPE,CLASSIFICATION_TYPE,NORAD_CAT_ID,ELEMENT_SET_NO,REV_AT_EPOCH,BSTAR,MEAN_MOTION_DOT,MEAN_MOTION_DDOT
ONEWEB-0211,2021-045A,2026-07-15T13:06:45.389088,13.16197834,.0002682,87.8989,253.4257,105.8480,254.2946,0,U,48767,999,24817,.24258E-3,.105E-5,0
ONEWEB-0223,2021-045B,2026-07-15T04:22:36.507072,13.15548662,.00023169,87.8993,253.6143,106.9013,253.2371,0,U,48768,999,24808,-.10623731E-3,-.27E-6,0
ONEWEB-0230,2021-045C,2026-07-15T12:49:09.335712,13.15548234,.00019143,87.8983,253.5554,96.4262,263.7086,0,U,48769,999,24839,.45335594E-3,.183E-5,0
ONEWEB-0237,2021-045D,2026-07-15T03:25:33.874752,13.15548482,.00024042,87.8981,253.6352,96.2126,263.9278,0,U,48770,999,24806,.38272934E-3,.157E-5,0
ONEWEB-0235,2021-045E,2026-07-15T04:38:33.421632,13.15550032,.00022491,87.8993,253.6135,108.5313,251.6062,0,U,48771,999,24806,-.33318935E-3,-.113E-5,0
ONEWEB-0242,2021-045F,2026-07-15T04:29:27.289824,13.15548103,.0001963,87.8996,253.6118,102.6124,257.5226,0,U,48772,999,24810,-.20822402E-3,-.66E-6,0
ONEWEB-0241,2021-045G,2026-07-15T13:18:49.175712,13.15538351,.0002369,87.8985,253.5537,104.8416,255.2977,0,U,48773,999,24806,.11355E-5,.13E-6,0
ONEWEB-0243,2021-045H,2026-07-15T04:56:49.009920,13.15550879,.00018758,87.8981,253.6359,112.4959,247.6370,0,U,48774,999,24804,.77642265E-4,.42E-6,0
ONEWEB-0222,2021-045J,2026-07-15T04:32:52.088928,13.15546936,.00022397,87.8991,253.6087,102.5077,257.6304,0,U,48775,999,24808,-.31572754E-3,-.106E-5,0
ONEWEB-0244,2021-045K,2026-07-15T05:10:31.727136,13.15548005,.00020747,87.8996,253.6000,101.5001,258.6362,0,U,48776,999,24865,.56338443E-3,.225E-5,0
ONEWEB-0247,2021-045L,2026-07-15T03:16:25.072320,13.15556929,.00021548,87.8984,253.6439,119.2429,240.8917,0,U,48777,999,24808,.2463964E-2,.941E-5,0
ONEWEB-0245,2021-045M,2026-07-15T04:59:06.047232,13.15548969,.00022539,87.8991,253.6119,100.9462,259.1922,0,U,48778,999,24806,-.1067261E-5,.12E-6,0
ONEWEB-0229,2021-045N,2026-07-15T04:52:16.274496,13.15547709,.00019889,87.8991,253.6103,100.9930,259.1424,0,U,48779,999,24809,-.6873045E-4,-.13E-6,0
ONEWEB-0228,2021-045P,2026-07-15T03:50:51.362880,13.15549194,.00020938,87.9003,253.6122,100.0522,260.0845,0,U,48780,999,24800,.34549673E-3,.143E-5,0
ONEWEB-0232,2021-045Q,2026-07-15T05:03:41.158656,13.15546016,.00019539,87.8993,253.6037,96.2676,263.8677,0,U,48781,999,24833,.13674358E-2,.528E-5,0
ONEWEB-0231,2021-045R,2026-07-15T04:31:44.060160,13.15547685,.00022122,87.8990,253.6191,103.3371,256.8006,0,U,48782,999,24802,-.20228807E-3,-.63E-6,0
ONEWEB-0234,2021-045S,2026-07-15T12:44:23.633376,13.15546962,.00027282,87.8994,253.5333,86.6462,273.4980,0,U,48783,999,24820,.34481214E-3,.143E-5,0
ONEWEB-0238,2021-045T,2026-07-15T12:44:45.899520,13.15548657,.00023863,87.9000,253.5292,92.7413,267.3990,0,U,48784,999,24810,.48094348E-3,.194E-5,0
ONEWEB-0240,2021-045U,2026-07-15T13:15:22.817088,13.15549197,.0002342,87.8997,253.5345,102.4099,257.7293,0,U,48785,999,24813,.30774E-5,.14E-6,0
ONEWEB-0246,2021-045V,2026-07-15T13:07:24.254400,13.15547755,.0002006,87.8996,253.5393,101.2145,258.9210,0,U,48786,999,24800,.20213E-3,.89E-6,0
ONEWEB-0210,2021-045W,2026-07-15T05:12:48.432672,13.15547725,.00018128,87.8993,253.6027,122.9437,237.1868,0,U,48787,999,24800,.28019967E-3,.118E-5,0
ONEWEB-0214,2021-045X,2026-07-15T05:25:20.444448,13.15547046,.00017537,87.8995,253.5984,104.2346,255.8979,0,U,48788,999,24797,.25004858E-3,.107E-5,0
ONEWEB-0221,2021-045Y,2026-07-15T12:53:43.195200,13.15548426,.00021426,87.8997,253.5438,103.2719,256.8650,0,U,48789,999,24810,.53374433E-3,.214E-5,0
ONEWEB-0213,2021-045Z,2026-07-15T03:30:07.869888,13.15548799,.00020813,87.8994,253.6253,107.0550,253.0809,0,U,48790,999,24811,.56319561E-3,.225E-5,0
ONEWEB-0212,2021-045AA,2026-07-15T04:46:33.090240,13.15547085,.00021189,87.8993,253.6088,97.1645,262.9727,0,U,48791,999,24811,-.12279915E-3,-.33E-6,0
ONEWEB-0227,2021-045AB,2026-07-15T04:45:25.518528,13.15547724,.00021404,87.8992,253.6092,100.1043,260.0329,0,U,48792,999,24806,-.31669394E-3,-.106E-5,0
ONEWEB-0226,2021-045AC,2026-07-15T04:36:17.726976,13.15547776,.00020109,87.8992,253.6151,104.9011,255.2342,0,U,48793,999,24803,-.23422612E-3,-.75E-6,0
ONEWEB-0224,2021-045AD,2026-07-15T12:51:26.315136,13.15548481,.00029735,87.8986,253.5786,98.7026,261.4442,0,U,48794,999,24800,.46529699E-3,.188E-5,0
ONEWEB-0233,2021-045AE,2026-07-15T12:58:04.289952,13.15550690,.00022632,87.8983,253.5851,104.5482,255.5899,0,U,48795,999,24802,.38055091E-3,.156E-5,0
ONEWEB-0190,2021-045AF,2026-07-15T12:40:01.333344,13.15549450,.00022631,87.8993,253.5511,116.9038,243.2324,0,U,48796,999,24809,.70641312E-3,.279E-5,0
