ONEWEB-0211             
1 48767U 21045A   26196.54635867  .00000105  00000+0  24258-3 0  9991
2 48767  87.8989 253.4257 0002682 105.8480 254.2946 13.16197834248172
ONEWEB-0223             
1 48768U 21045B   26196.18236698 -.00000027  00000+0 -10624-3 0  9998
2 48768  87.8993 253.6143 0002316 106.9013 253.2371 13.15548662248081
ONEWEB-0230             
1 48769U 21045C   26196.53413583  .00000183  00000+0  45336-3 0  9997
2 48769  87.8983 253.5554 0001914  96.4262 263.7086 13.15548234248396
ONEWEB-0237             
1 48770U 21045D   26196.14275318  .00000157  00000+0  38273-3 0  9991
2 48770  87.8981 253.6352 0002404  96.2126 263.9278 13.15548482248069
ONEWEB-0235             
1 48771U 21045E   26196.19344238 -.00000113  00000+0 -33319-3 0  9995
2 48771  87.8993 253.6135 0002249 108.5313 251.6062 13.15550032248063
ONEWEB-0242             
1 48772U 21045F   26196.18712141 -.00000066  00000+0 -20822-3 0  9999
2 48772  87.8996 253.6118 0001963 102.6124 257.5226 13.15548103248103
ONEWEB-0241             
1 48773U 21045G   26196.55473583  .00000013  00000+0  11355-5 0  9998
2 48773  87.8985 253.5537 0002369 104.8416 255.2977 13.15538351248062
ONEWEB-0243             
1 48774U 21045H   26196.20612280  .00000042  00000+0  77642-4 0  9992
2 48774  87.8981 253.6359 0001875 112.4959 247.6370 13.15550879248049
ONEWEB-0222             
1 48775U 21045J   26196.18949177 -.00000106  00000+0 -31573-3 0  9993
2 48775  87.8991 253.6087 0002239 102.5077 257.6304 13.15546936248086
ONEWEB-0244             
1 48776U 21045K   26196.21564499  .00000225  00000+0  56338-3 0  9994
2 48776  87.8996 253.6000 0002074 101.5001 258.6362 13.15548005248657
ONEWEB-0247             
1 48777U 21045L   26196.13640130  .00000941  00000+0  24640-2 0  9998
2 48777  87.8984 253.6439 0002154 119.2429 240.8917 13.15556929248080
ONEWEB-0245             
1 48778U 21045M   26196.20770888  .00000012  00000+0 -10673-5 0  9995
2 48778  87.8991 253.6119 0002253 100.9462 259.1922 13.15548969248060
ONEWEB-0229             
1 48779U 21045N   26196.20296614 -.00000013  00000+0 -68730-4 0  9994
2 48779  87.8991 253.6103 0001988 100.9930 259.1424 13.15547709248099
ONEWEB-0228             
1 48780U 21045P   26196.16031670  .00000143  00000+0  34550-3 0  9994
2 48780  87.9003 253.6122 0002093 100.0522 260.0845 13.15549194248002
ONEWEB-0232             
1 48781U 21045Q   26196.21089304  .00000528  00000+0  13674-2 0  9998
2 48781  87.8993 253.6037 0001953  96.2676 263.8677 13.15546016248335
ONEWEB-0231             
1 48782U 21045R   26196.18870440 -.00000063  00000+0 -20229-3 0  9995
2 48782  87.8990 253.6191 0002212 103.3371 256.8006 13.15547685248022
ONEWEB-0234             
1 48783U 21045S   26196.53082909  .00000143  00000+0  34481-3 0  9992
2 48783  87.8994 253.5333 0002728  86.6462 273.4980 13.15546962248203
ONEWEB-0238             
1 48784U 21045T   26196.53108680  .00000194  00000+0  48094-3 0  9999
2 48784  87.9000 253.5292 0002386  92.7413 267.3990 13.15548657248106
ONEWEB-0240             
1 48785U 21045U   26196.55234742  .00000014  00000+0  30774-5 0  9990
2 48785  87.8997 253.5345 0002342 102.4099 257.7293 13.15549197248133
ONEWEB-0246             
1 48786U 21045V   26196.54680850  .00000089  00000+0  20213-3 0  9992
2 48786  87.8996 253.5393 0002006 101.2145 258.9210 13.15547755248008
ONEWEB-0210             
1 48787U 21045W   26196.21722723  .00000118  00000+0  28020-3 0  9990
2 48787  87.8993 253.6027 0001812 122.9437 237.1868 13.15547725248004
ONEWEB-0214             
1 48788U 21045X   26196.22593107  .00000107  00000+0  25005-3 0  9992
2 48788  87.8995 253.5984 0001753 104.2346 255.8979 13.15547046247975
ONEWEB-0221             
1 48789U 21045Y   26196.53730550  .00000214  00000+0  53374-3 0  9991
2 48789  87.8997 253.5438 0002142 103.2719 256.8650 13.15548426248104
ONEWEB-0213             
1 48790U 21045Z   26196.14592442  .00000225  00000+0  56320-3 0  9992
2 48790  87.8994 253.6253 0002081 107.0550 253.0809 13.15548799248115
ONEWEB-0212             
1 48791U 21045AA  26196.19899410 -.00000033  00000+0 -12280-3 0  9999
2 48791  87.8993 253.6088 0002118  97.1645 262.9727 13.15547085248111
ONEWEB-0227             
1 48792U 21045AB  26196.19821202 -.00000106  00000+0 -31669-3 0  9997
2 48792  87.8992 253.6092 0002140 100.1043 260.0329 13.15547724248069
ONEWEB-0226             
1 48793U 21045AC  26196.19187184 -.00000075  00000+0 -23423-3 0  9996
2 48793  87.8992 253.6151 0002010 104.9011 255.2342 13.15547776248034
ONEWEB-0224             
1 48794U 21045AD  26196.53572124  .00000188  00000+0  46530-3 0  9994
2 48794  87.8986 253.5786 0002973  98.7026 261.4442 13.15548481248006
ONEWEB-0233             
1 48795U 21045AE  26196.54032743  .00000156  00000+0  38055-3 0  9992
2 48795  87.8983 253.5851 0002263 104.5482 255.5899 13.15550690248028
ONEWEB-0190             
1 48796U 21045AF  26196.52779321  .00000279  00000+0  70641-3 0  9994
2 48796  87.8993 253.5511 0002263 116.9038 243.2324 13.15549450248093
